{"type":"FeatureCollection","features":[{"type":"Feature","properties":{"ne_id":1159146977,"name":"Haikou","name_zh":"海口","longitude":110.320026,"latitude":20.050002,"wikidata_id":"Q189823","source_adm0_a3":"CHN","source_adm1_name":"Hainan","source_feature_class":"Admin-1 capital","source_scalerank":6,"source_pop_max":2046189,"source_id":"ne-ne_10m_populated_places","label_admin_unit":"海南省"},"geometry":{"type":"Point","coordinates":[110.320026,20.050002]}},{"type":"Feature","properties":{"ne_id":1159149085,"name":"Macau","name_zh":"澳门","longitude":113.544375,"latitude":22.189135,"wikidata_id":"Q14773","source_adm0_a3":"MAC","source_adm1_name":null,"source_feature_class":"Admin-0 region capital","source_scalerank":6,"source_pop_max":568700,"source_id":"ne-ne_10m_populated_places","label_admin_unit":"澳门特别行政区"},"geometry":{"type":"Point","coordinates":[113.544375,22.189135]}},{"type":"Feature","properties":{"ne_id":1159149793,"name":"Hefei","name_zh":"合肥","longitude":117.278068,"latitude":31.851977,"wikidata_id":"Q185684","source_adm0_a3":"CHN","source_adm1_name":"Anhui","source_feature_class":"Admin-1 capital","source_scalerank":4,"source_pop_max":2035000,"source_id":"ne-ne_10m_populated_places","label_admin_unit":"安徽省"},"geometry":{"type":"Point","coordinates":[117.278068,31.851977]}},{"type":"Feature","properties":{"ne_id":1159149907,"name":"Shijiazhuang","name_zh":"石家庄","longitude":114.478032,"latitude":38.05196,"wikidata_id":"Q58401","source_adm0_a3":"CHN","source_adm1_name":"Hebei","source_feature_class":"Admin-1 capital","source_scalerank":4,"source_pop_max":2417000,"source_id":"ne-ne_10m_populated_places","label_admin_unit":"河北省"},"geometry":{"type":"Point","coordinates":[114.478032,38.05196]}},{"type":"Feature","properties":{"ne_id":1159149941,"name":"Hohhot","name_zh":"呼和浩特","longitude":111.65805,"latitude":40.821921,"wikidata_id":"Q535534","source_adm0_a3":"CHN","source_adm1_name":"Nei Mongol","source_feature_class":"Admin-1 capital","source_scalerank":4,"source_pop_max":1726000,"source_id":"ne-ne_10m_populated_places","label_admin_unit":"内蒙古自治区"},"geometry":{"type":"Point","coordinates":[111.65805,40.821921]}},{"type":"Feature","properties":{"ne_id":1159150819,"name":"Xining","name_zh":"西宁","longitude":101.768059,"latitude":36.621944,"wikidata_id":"Q69060","source_adm0_a3":"CHN","source_adm1_name":"Gansu","source_feature_class":"Admin-1 capital","source_scalerank":3,"source_pop_max":1048000,"source_id":"ne-ne_10m_populated_places","label_admin_unit":"青海省"},"geometry":{"type":"Point","coordinates":[101.768059,36.621944]}},{"type":"Feature","properties":{"ne_id":1159150879,"name":"Lhasa","name_zh":"拉萨","longitude":91.10001,"latitude":29.645024,"wikidata_id":"Q5869","source_adm0_a3":"CHN","source_adm1_name":"Xizang","source_feature_class":"Admin-1 capital","source_scalerank":3,"source_pop_max":219599,"source_id":"ne-ne_10m_populated_places","label_admin_unit":"西藏自治区"},"geometry":{"type":"Point","coordinates":[91.10001,29.645024]}},{"type":"Feature","properties":{"ne_id":1159150889,"name":"Yinchuan","name_zh":"银川","longitude":106.271092,"latitude":38.46992,"wikidata_id":"Q211243","source_adm0_a3":"CHN","source_adm1_name":"Ningxia Hui","source_feature_class":"Admin-1 capital","source_scalerank":3,"source_pop_max":991000,"source_id":"ne-ne_10m_populated_places","label_admin_unit":"宁夏回族自治区"},"geometry":{"type":"Point","coordinates":[106.271092,38.46992]}},{"type":"Feature","properties":{"ne_id":1159151321,"name":"Lanzhou","name_zh":"兰州","longitude":103.790054,"latitude":36.057974,"wikidata_id":"Q183584","source_adm0_a3":"CHN","source_adm1_name":"Gansu","source_feature_class":"Admin-1 capital","source_scalerank":2,"source_pop_max":2561000,"source_id":"ne-ne_10m_populated_places","label_admin_unit":"甘肃省"},"geometry":{"type":"Point","coordinates":[103.790054,36.057974]}},{"type":"Feature","properties":{"ne_id":1159151323,"name":"Nanning","name_zh":"南宁","longitude":108.318099,"latitude":22.821934,"wikidata_id":"Q179608","source_adm0_a3":"CHN","source_adm1_name":"Guangxi","source_feature_class":"Admin-1 capital","source_scalerank":2,"source_pop_max":2167000,"source_id":"ne-ne_10m_populated_places","label_admin_unit":"广西壮族自治区"},"geometry":{"type":"Point","coordinates":[108.318099,22.821934]}},{"type":"Feature","properties":{"ne_id":1159151325,"name":"Guiyang","name_zh":"贵阳","longitude":106.718093,"latitude":26.581989,"wikidata_id":"Q192271","source_adm0_a3":"CHN","source_adm1_name":"Guizhou","source_feature_class":"Admin-1 capital","source_scalerank":2,"source_pop_max":3662000,"source_id":"ne-ne_10m_populated_places","label_admin_unit":"贵州省"},"geometry":{"type":"Point","coordinates":[106.718093,26.581989]}},{"type":"Feature","properties":{"ne_id":1159151327,"name":"Chongqing","name_zh":"重庆","longitude":106.593036,"latitude":29.566923,"wikidata_id":"Q11725","source_adm0_a3":"CHN","source_adm1_name":"Chongqing","source_feature_class":"Admin-1 capital","source_scalerank":2,"source_pop_max":6461000,"source_id":"ne-ne_10m_populated_places","label_admin_unit":"重庆市"},"geometry":{"type":"Point","coordinates":[106.593036,29.566923]}},{"type":"Feature","properties":{"ne_id":1159151329,"name":"Fuzhou","name_zh":"福州","longitude":119.2981,"latitude":26.081942,"wikidata_id":"Q68481","source_adm0_a3":"CHN","source_adm1_name":"Fujian","source_feature_class":"Admin-1 capital","source_scalerank":2,"source_pop_max":2606000,"source_id":"ne-ne_10m_populated_places","label_admin_unit":"福建省"},"geometry":{"type":"Point","coordinates":[119.2981,26.081942]}},{"type":"Feature","properties":{"ne_id":1159151331,"name":"Guangzhou","name_zh":"广州","longitude":113.261785,"latitude":23.124723,"wikidata_id":"Q16572","source_adm0_a3":"CHN","source_adm1_name":"Guangdong","source_feature_class":"Admin-1 capital","source_scalerank":2,"source_pop_max":8829000,"source_id":"ne-ne_10m_populated_places","label_admin_unit":"广东省"},"geometry":{"type":"Point","coordinates":[113.261785,23.124723]}},{"type":"Feature","properties":{"ne_id":1159151363,"name":"Xian","name_zh":"西安","longitude":108.89305,"latitude":34.276971,"wikidata_id":"Q5826","source_adm0_a3":"CHN","source_adm1_name":"Shaanxi","source_feature_class":"Admin-1 capital","source_scalerank":2,"source_pop_max":4009000,"source_id":"ne-ne_10m_populated_places","label_admin_unit":"陕西省"},"geometry":{"type":"Point","coordinates":[108.89305,34.276971]}},{"type":"Feature","properties":{"ne_id":1159151365,"name":"Taiyuan","name_zh":"太原","longitude":112.543112,"latitude":37.876958,"wikidata_id":"Q72778","source_adm0_a3":"CHN","source_adm1_name":"Shanxi","source_feature_class":"Admin-1 capital","source_scalerank":2,"source_pop_max":2913000,"source_id":"ne-ne_10m_populated_places","label_admin_unit":"山西省"},"geometry":{"type":"Point","coordinates":[112.543112,37.876958]}},{"type":"Feature","properties":{"ne_id":1159151367,"name":"Wuhan","name_zh":"武汉","longitude":114.268071,"latitude":30.581977,"wikidata_id":"Q11746","source_adm0_a3":"CHN","source_adm1_name":"Hubei","source_feature_class":"Admin-1 capital","source_scalerank":2,"source_pop_max":7243000,"source_id":"ne-ne_10m_populated_places","label_admin_unit":"湖北省"},"geometry":{"type":"Point","coordinates":[114.268071,30.581977]}},{"type":"Feature","properties":{"ne_id":1159151369,"name":"Changsha","name_zh":"长沙","longitude":112.968047,"latitude":28.201916,"wikidata_id":"Q174091","source_adm0_a3":"CHN","source_adm1_name":"Hunan","source_feature_class":"Admin-1 capital","source_scalerank":2,"source_pop_max":2604000,"source_id":"ne-ne_10m_populated_places","label_admin_unit":"湖南省"},"geometry":{"type":"Point","coordinates":[112.968047,28.201916]}},{"type":"Feature","properties":{"ne_id":1159151371,"name":"Kunming","name_zh":"昆明","longitude":102.69744,"latitude":25.042859,"wikidata_id":"Q182852","source_adm0_a3":"CHN","source_adm1_name":"Yunnan","source_feature_class":"Admin-1 capital","source_scalerank":2,"source_pop_max":2931000,"source_id":"ne-ne_10m_populated_places","label_admin_unit":"云南省"},"geometry":{"type":"Point","coordinates":[102.69744,25.042859]}},{"type":"Feature","properties":{"ne_id":1159151375,"name":"Zhengzhou","name_zh":"郑州","longitude":113.663147,"latitude":34.756942,"wikidata_id":"Q30340","source_adm0_a3":"CHN","source_adm1_name":"Henan","source_feature_class":"Admin-1 capital","source_scalerank":2,"source_pop_max":2636000,"source_id":"ne-ne_10m_populated_places","label_admin_unit":"河南省"},"geometry":{"type":"Point","coordinates":[113.663147,34.756942]}},{"type":"Feature","properties":{"ne_id":1159151377,"name":"Shenyeng","name_zh":"沈阳","longitude":123.448028,"latitude":41.806925,"wikidata_id":"Q11720","source_adm0_a3":"CHN","source_adm1_name":"Liaoning","source_feature_class":"Admin-1 capital","source_scalerank":2,"source_pop_max":4787000,"source_id":"ne-ne_10m_populated_places","label_admin_unit":"辽宁省"},"geometry":{"type":"Point","coordinates":[123.448028,41.806925]}},{"type":"Feature","properties":{"ne_id":1159151379,"name":"Jinan","name_zh":"济南","longitude":116.993073,"latitude":36.676928,"wikidata_id":"Q170247","source_adm0_a3":"CHN","source_adm1_name":"Shandong","source_feature_class":"Admin-1 capital","source_scalerank":2,"source_pop_max":2798000,"source_id":"ne-ne_10m_populated_places","label_admin_unit":"山东省"},"geometry":{"type":"Point","coordinates":[116.993073,36.676928]}},{"type":"Feature","properties":{"ne_id":1159151381,"name":"Tianjin","name_zh":"天津","longitude":117.196607,"latitude":39.082772,"wikidata_id":"Q11736","source_adm0_a3":"CHN","source_adm1_name":"Tianjin","source_feature_class":"Admin-1 capital","source_scalerank":2,"source_pop_max":7180000,"source_id":"ne-ne_10m_populated_places","label_admin_unit":"天津市"},"geometry":{"type":"Point","coordinates":[117.196607,39.082772]}},{"type":"Feature","properties":{"ne_id":1159151383,"name":"Nanchang","name_zh":"南昌","longitude":115.87805,"latitude":28.681938,"wikidata_id":"Q171943","source_adm0_a3":"CHN","source_adm1_name":"Jiangxi","source_feature_class":"Admin-1 capital","source_scalerank":2,"source_pop_max":2350000,"source_id":"ne-ne_10m_populated_places","label_admin_unit":"江西省"},"geometry":{"type":"Point","coordinates":[115.87805,28.681938]}},{"type":"Feature","properties":{"ne_id":1159151385,"name":"Nanjing","name_zh":"南京","longitude":118.778029,"latitude":32.051965,"wikidata_id":"Q16666","source_adm0_a3":"CHN","source_adm1_name":"Jiangsu","source_feature_class":"Admin-1 capital","source_scalerank":2,"source_pop_max":3679000,"source_id":"ne-ne_10m_populated_places","label_admin_unit":"江苏省"},"geometry":{"type":"Point","coordinates":[118.778029,32.051965]}},{"type":"Feature","properties":{"ne_id":1159151387,"name":"Hangzhou","name_zh":"杭州","longitude":120.168073,"latitude":30.25192,"wikidata_id":"Q4970","source_adm0_a3":"CHN","source_adm1_name":"Zhejiang","source_feature_class":"Admin-1 capital","source_scalerank":2,"source_pop_max":3007000,"source_id":"ne-ne_10m_populated_places","label_admin_unit":"浙江省"},"geometry":{"type":"Point","coordinates":[120.168073,30.25192]}},{"type":"Feature","properties":{"ne_id":1159151393,"name":"Changchun","name_zh":"长春","longitude":125.338042,"latitude":43.866954,"wikidata_id":"Q92161","source_adm0_a3":"CHN","source_adm1_name":"Jilin","source_feature_class":"Admin-1 capital","source_scalerank":2,"source_pop_max":3183000,"source_id":"ne-ne_10m_populated_places","label_admin_unit":"吉林省"},"geometry":{"type":"Point","coordinates":[125.338042,43.866954]}},{"type":"Feature","properties":{"ne_id":1159151397,"name":"Harbin","name_zh":"哈尔滨","longitude":126.648039,"latitude":45.75193,"wikidata_id":"Q42956","source_adm0_a3":"CHN","source_adm1_name":"Heilongjiang","source_feature_class":"Admin-1 capital","source_scalerank":2,"source_pop_max":3621000,"source_id":"ne-ne_10m_populated_places","label_admin_unit":"黑龙江省"},"geometry":{"type":"Point","coordinates":[126.648039,45.75193]}},{"type":"Feature","properties":{"ne_id":1159151531,"name":"Ürümqi","name_zh":"乌鲁木齐","longitude":87.57306,"latitude":43.806958,"wikidata_id":"Q16959","source_adm0_a3":"CHN","source_adm1_name":"Xinjiang Uygur","source_feature_class":"Admin-1 capital","source_scalerank":1,"source_pop_max":3575000,"source_id":"ne-ne_10m_populated_places","label_admin_unit":"新疆维吾尔自治区"},"geometry":{"type":"Point","coordinates":[87.57306,43.806958]}},{"type":"Feature","properties":{"ne_id":1159151533,"name":"Chengdu","name_zh":"成都","longitude":104.068074,"latitude":30.671946,"wikidata_id":"Q30002","source_adm0_a3":"CHN","source_adm1_name":"Sichuan","source_feature_class":"Admin-1 capital","source_scalerank":1,"source_pop_max":4123000,"source_id":"ne-ne_10m_populated_places","label_admin_unit":"四川省"},"geometry":{"type":"Point","coordinates":[104.068074,30.671946]}},{"type":"Feature","properties":{"ne_id":1159151567,"name":"Taipei","name_zh":"台北","longitude":121.568333,"latitude":25.035833,"wikidata_id":"Q1867","source_adm0_a3":"TWN","source_adm1_name":"Taipei City","source_feature_class":"Admin-0 capital","source_scalerank":1,"source_pop_max":6900273,"source_id":"ne-ne_10m_populated_places","label_admin_unit":"台湾省"},"geometry":{"type":"Point","coordinates":[121.568333,25.035833]}},{"type":"Feature","properties":{"ne_id":1159151595,"name":"Beijing","name_zh":"北京","longitude":116.394201,"latitude":39.90172,"wikidata_id":"Q956","source_adm0_a3":"CHN","source_adm1_name":"Beijing","source_feature_class":"Admin-0 capital","source_scalerank":0,"source_pop_max":11106000,"source_id":"ne-ne_10m_populated_places","label_admin_unit":"北京市"},"geometry":{"type":"Point","coordinates":[116.394201,39.90172]}},{"type":"Feature","properties":{"ne_id":1159151605,"name":"Shanghai","name_zh":"上海","longitude":121.434559,"latitude":31.218398,"wikidata_id":"Q8686","source_adm0_a3":"CHN","source_adm1_name":"Shanghai","source_feature_class":"Admin-1 capital","source_scalerank":0,"source_pop_max":14987000,"source_id":"ne-ne_10m_populated_places","label_admin_unit":"上海市"},"geometry":{"type":"Point","coordinates":[121.434559,31.218398]}},{"type":"Feature","properties":{"ne_id":1159151629,"name":"Hong Kong","name_zh":"香港","longitude":114.183064,"latitude":22.306927,"wikidata_id":"Q8646","source_adm0_a3":"HKG","source_adm1_name":null,"source_feature_class":"Admin-0 region capital","source_scalerank":0,"source_pop_max":7206000,"source_id":"ne-ne_10m_populated_places","label_admin_unit":"香港特别行政区"},"geometry":{"type":"Point","coordinates":[114.183064,22.306927]}}]}
